[{"name":"Mark Meadows","address":[{"line1":"9 Miller Rd.","line3":"Skyland Fire Department","city":"Asheville","state":"NC","zip":"28776","phone":"828-765-0573","longitude":-82.5240931,"latitude":35.4846372},{"line1":"90 Elk Mountain Rd.","line3":"Woodfin Town Hall","city":"Asheville","state":"NC","zip":"28804","phone":"828-765-0573","longitude":-82.5859027,"latitude":35.631458},{"line1":"98 E. Morgan St.","line3":"Community Services Building Second Floor, Conference Room A","city":"Brevard","state":"NC","zip":"28712","phone":"828-693-5660","longitude":-82.7340135,"latitude":35.2312324},{"line1":"101 Mitchell St.","line3":"Swain County Administration Building","city":"Bryson City","state":"NC","zip":"28713","phone":"828-452-6022","longitude":-83.44769629999999,"latitude":35.4284337},{"line1":"2 Town Sq.","line3":"Burnsville Town Hall","city":"Burnsville","state":"NC","zip":"28714","phone":"828-765-0573","longitude":-82.300495,"latitude":35.91698},{"line1":"810 Acquoni Rd.","line3":"Ginger Lynn Welch Building","city":"Cherokee","state":"NC","zip":"28719","phone":"828-452-6022","longitude":-83.31281460000001,"latitude":35.4889529},{"line1":"5 W. Main St.","line2":"Room 332","line3":"Macon County Courthouse","city":"Franklin","state":"NC","zip":"28734","phone":"828-452-6022","longitude":-83.3816781,"latitude":35.181994},{"line1":"261 Courthouse Dr.","line2":"Paul Jordan Conference Room","line3":"Clay County Courthouse","city":"Hayesville","state":"NC","zip":"28904","phone":"828-452-6022","longitude":-83.829076,"latitude":35.041118},{"line1":"200 N. Grove St.","line2":"Suite 90","line3":"Henderson County Courthouse","city":"Hendersonville","state":"NC","zip":"28792","phone":"828-693-5660","longitude":-82.45688779999999,"latitude":35.3159633},{"line1":"2345 Morganton Blvd.","line3":"Health and Human Services Bldg.","city":"Lenoir","state":"NC","zip":"28645","phone":"828-426-8701","longitude":-81.5724283,"latitude":35.8920346},{"line1":"100 Spaulding Road","line3":"McDowell County Senior Center","city":"Marion","state":"NC","zip":"28752","phone":"828-432-2699","longitude":-82.02352800000001,"latitude":35.6661262},{"line1":"280 N. Main St.","line3":"Mars Hill Town Hall","city":"Mars Hill","state":"NC","zip":"28754","phone":"828-765-0573","longitude":-82.5496506,"latitude":35.8306609},{"line1":"305 E. Union St.","line2":"Suite A100","line3":"City of Morganton Town Hall","city":"Morganton","state":"NC","zip":"28655","phone":"828-432-2699","longitude":-81.6863355,"latitude":35.7480974},{"line1":"107 Peachtree St.","line3":"Murphy Power Board","city":"Murphy","state":"NC","zip":"28906","phone":"828-452-6022","longitude":-84.0326446,"latitude":35.0865265},{"line1":"12 N. Main St.","line3":"Graham County Courthouse","city":"Robbinsville","state":"NC","zip":"28771","phone":"828-452-6022","longitude":-83.80684699999999,"latitude":35.323017},{"line1":"11 Crystal St.","line3":"Mitchell Country Chamber of Commerce Building","city":"Spruce Pine","state":"NC","zip":"28777","phone":"828-765-0573","longitude":-82.068939,"latitude":35.91595},{"line1":"125 Bonnie Ln.","line3":"Southwestern Commission Building","city":"Sylva","state":"NC","zip":"28779","phone":"828-452-6022","longitude":-83.208622,"latitude":35.3514788},{"line1":"285 N. Main St.","line2":"Suite 1300","line3":"Haywood County Justice Center","city":"Waynesville","state":"NC","zip":"28786","phone":"828-452-6022","longitude":-82.98666940000001,"latitude":35.4932599}],"party":"Republican","phones":["202-225-6401"],"emails":[],"urls":["https://meadows.house.gov"],"photoUrl":"","channels":[],"sources":["theunitedstates.io"],"office":{"name":"United States House of Representatives NC-11","level":"federal"}}]