[{"name":"Tom Udall","address":[{"line1":"400 Gold Ave.","line2":"Suite 300","city":"Albuquerque","state":"NM","zip":"87102","phone":"505-346-6791","longitude":-106.6521937,"latitude":35.0833514},{"line1":"102 W. Hagerman St.","line2":"Suite A","city":"Carlsbad","state":"NM","zip":"88220","phone":"575-234-0366","longitude":-104.226611,"latitude":32.425358},{"line1":"201 N. Church St.","line2":"Suite 201B","city":"Las Cruces","state":"NM","zip":"88001","phone":"575-526-5475","longitude":-106.7786459,"latitude":32.3109784},{"line1":"100 South Avenue A","line2":"Suite 113","city":"Portales","state":"NM","zip":"88130","phone":"575-356-6811","longitude":-103.3381861,"latitude":34.1859741},{"line1":"120 S. Federal Pl.","line2":"Suite 302","city":"Santa Fe","state":"NM","zip":"87501","phone":"505-988-6511","longitude":-105.938628,"latitude":35.6913389}],"party":"Democratic","phones":["202-224-6621"],"emails":[],"urls":["https://www.tomudall.senate.gov"],"photoUrl":"","channels":[],"sources":["theunitedstates.io"]},{"name":"Martin Heinrich","address":[{"line1":"400 Gold Ave. SW","line2":"Suite 1080","city":"Albuquerque","state":"NM","zip":"87102","phone":"505-346-6601","longitude":-106.6521937,"latitude":35.0833514},{"line1":"7450 E. Main St.","line2":"Suite A","city":"Farmington","state":"NM","zip":"87402","phone":"505-325-5030","longitude":-108.1112628,"latitude":36.7863602},{"line1":"505 S. Main St.","line2":"Suite 148","line3":"Loretto Towne Center","city":"Las Cruces","state":"NM","zip":"88001","phone":"575-523-6561","longitude":-106.7758242,"latitude":32.3041597},{"line1":"200 E. 4th St.","line2":"Suite 300","city":"Roswell","state":"NM","zip":"88201","phone":"575-622-7113","longitude":-104.521106,"latitude":33.39647},{"line1":"123 E. Marcy St.","line2":"Suite 103","city":"Santa Fe","state":"NM","zip":"87501","phone":"505-988-6647","longitude":-105.9354058,"latitude":35.6889043}],"party":"Democratic","phones":["202-224-5521"],"emails":[],"urls":["https://www.heinrich.senate.gov"],"photoUrl":"","channels":[],"sources":["theunitedstates.io"]}]