[{"name":"John Boozman","address":[{"line1":"106 W. Main St.","line2":"Suite 104","city":"El Dorado","state":"AR","zip":"71730","phone":"870-863-4641","longitude":-92.664046,"latitude":33.2120448},{"line1":"1120 Garrison Ave.","line2":"Suite 2B","city":"Fort Smith","state":"AR","zip":"72901","phone":"479-573-0189","longitude":-94.42033099999999,"latitude":35.383512},{"line1":"300 S. Church St.","line2":"Suite 400","city":"Jonesboro","state":"AR","zip":"72401","phone":"870-268-6925","longitude":-90.70368549999999,"latitude":35.8404281},{"line1":"1401 W. Capitol Ave.","line2":"Suite 155","city":"Little Rock","state":"AR","zip":"72201","phone":"501-372-7153","longitude":-92.2865752,"latitude":34.7456872},{"line1":"213 W. Monroe","line2":"Suite N","city":"Lowell","state":"AR","zip":"72745","phone":"479-725-0400","longitude":-94.1393049,"latitude":36.2535183},{"line1":"1001 Hwy 62 East","line2":"Suite 11","city":"Mountain Home","state":"AR","zip":"72653","phone":"870-424-0129","longitude":-92.3729619,"latitude":36.3499306},{"line1":"620 E. 22nd St.","line2":"Suite 204","city":"Stuttgart","state":"AR","zip":"72160","phone":"870-672-6941","longitude":-91.54664090000001,"latitude":34.478784}],"party":"Republican","phones":["202-224-4843"],"emails":[],"urls":["https://www.boozman.senate.gov/public"],"photoUrl":"","channels":[],"sources":["theunitedstates.io"]},{"name":"Tom Cotton","address":[{"line1":"106 W. Main St.","line2":"Suite 410","city":"El Dorado","state":"AR","zip":"71730","phone":"870-864-8582","longitude":-92.664046,"latitude":33.2120448},{"line1":"300 S. Church","line2":"Suite 338","city":"Jonesboro","state":"AR","zip":"72401","phone":"870-933-6223","longitude":-90.70368549999999,"latitude":35.8404281},{"line1":"1401 W. Capitol Ave.","line2":"Suite 235","city":"Little Rock","state":"AR","zip":"72201","phone":"501-223-9081","longitude":-92.2865752,"latitude":34.7456872},{"line1":"1108 S. Old Missouri Rd.","line2":"Suite B","city":"Springdale","state":"AR","zip":"72764","phone":"479-751-0879","longitude":-94.1176151,"latitude":36.17457100000001}],"party":"Republican","phones":["202-224-2353"],"emails":[],"urls":["https://www.cotton.senate.gov"],"photoUrl":"","channels":[],"sources":["theunitedstates.io"]}]