[{"name":"Jeff Merkley","address":[{"line1":"131 NW. Hawthorne Ave.","line2":"Suite 208","city":"Bend","state":"OR","zip":"97701","phone":"541-318-1298","longitude":-121.3095974,"latitude":44.0577537},{"line1":"405 E. 8th Ave.","line2":"Suite 2010","city":"Eugene","state":"OR","zip":"97401","phone":"541-465-6750","longitude":-123.0857882,"latitude":44.0516985},{"line1":"10 S. Bartlett St.","line2":"Suite 201","city":"Medford","state":"OR","zip":"97501","phone":"541-608-9102","longitude":-122.8712245,"latitude":42.3266304},{"line1":"310 SE. Second St.","line2":"Suite 105","city":"Pendleton","state":"OR","zip":"97801","phone":"541-278-1129","longitude":-118.7845998,"latitude":45.6721567},{"line1":"121 SW Salmon St.","line2":"Suite 1400","city":"Portland","state":"OR","zip":"97204","phone":"503-326-3386","longitude":-122.6748937,"latitude":45.5160884},{"line1":"161 High St. SE","line2":"Suite 250","city":"Salem","state":"OR","zip":"97301","phone":"503-362-8102","longitude":-123.0380741,"latitude":44.9389422}],"party":"Democratic","phones":["202-224-3753"],"emails":[],"urls":["https://www.merkley.senate.gov"],"photoUrl":"","channels":[],"sources":["theunitedstates.io"]},{"name":"Ron Wyden","address":[{"line1":"131 NW. Hawthorne Ave.","line2":"Suite 107","line3":"The Jamison Building","city":"Bend","state":"OR","zip":"97701","phone":"541-330-9142","longitude":-121.3095974,"latitude":44.0577537},{"line1":"405 E. 8th Ave.","line2":"Suite 2020","city":"Eugene","state":"OR","zip":"97401","phone":"541-431-0229","longitude":-123.0857882,"latitude":44.0516985},{"line1":"105 Fir St.","line2":"Suite 201","line3":"SAC Annex Building","city":"La Grande","state":"OR","zip":"97850","phone":"541-962-7691","longitude":-118.0926554,"latitude":45.326715},{"line1":"310 W. 6th St.","line2":"Room 118","line3":"Federal Courthouse","city":"Medford","state":"OR","zip":"97501","phone":"541-858-5122","longitude":-122.8769125,"latitude":42.3253466},{"line1":"911 NE 11th Ave.","line2":"Suite 630","city":"Portland","state":"OR","zip":"97232","phone":"503-326-7525","longitude":-122.6555902,"latitude":45.5293348},{"line1":"707 13th St. SE","line2":"Suite 285","city":"Salem","state":"OR","zip":"97301","phone":"503-589-4555","longitude":-123.0290967,"latitude":44.9304368}],"party":"Democratic","phones":["202-224-5244"],"emails":[],"urls":["https://www.wyden.senate.gov"],"photoUrl":"","channels":[],"sources":["theunitedstates.io"]}]