[{"name":"Lindsey Graham","address":[{"line1":"508 Hampton St.","line2":"Suite 202","city":"Columbia","state":"SC","zip":"29201","phone":"803-933-0112","longitude":-81.0461408,"latitude":34.0016459},{"line1":"401 W. Evans St.","line2":"Suite 111","line3":"McMillan Federal Building","city":"Florence","state":"SC","zip":"29501","phone":"843-669-1505","longitude":-79.7733804,"latitude":34.1974074},{"line1":"130 S. Main St.","line2":"7th Floor","city":"Greenville","state":"SC","zip":"29601","phone":"864-250-1417","longitude":-82.4004437,"latitude":34.84875359999999},{"line1":"530 Johnnie Dodds Blvd.","line2":"Suite 202","city":"Mt. Pleasant","state":"SC","zip":"29464","phone":"843-849-3887","longitude":-79.88793369999999,"latitude":32.8060149},{"line1":"124 Exchange St.","line2":"Suite A","city":"Pendleton","state":"SC","zip":"29670","phone":"864-646-4090","longitude":-82.782997,"latitude":34.65072},{"line1":"235 E. Main St.","line2":"Suite 100","city":"Rock Hill","state":"SC","zip":"29730","phone":"803-366-2828","longitude":-81.0247705,"latitude":34.9245162}],"party":"Republican","phones":["202-224-5972"],"emails":[],"urls":["https://www.lgraham.senate.gov/public"],"photoUrl":"","channels":[],"sources":["theunitedstates.io"]},{"name":"Tim Scott","address":[{"line1":"1901 Main St.","line2":"Suite 1425","city":"Columbia","state":"SC","zip":"29201","phone":"803-771-6112","longitude":-81.0384094,"latitude":34.0108841},{"line1":"104 S. Main St.","line2":"Suite 803","city":"Greenville","state":"SC","zip":"29601","phone":"864-233-5366","longitude":-82.40024,"latitude":34.849407},{"line1":"2500 City Hall Ln.","line2":"3rd Floor Suite","city":"North Charleston","state":"SC","zip":"29406","phone":"843-727-4525","longitude":-80.0121928,"latitude":32.8769943}],"party":"Republican","phones":["202-224-6121"],"emails":[],"urls":["https://www.scott.senate.gov"],"photoUrl":"","channels":[],"sources":["theunitedstates.io"]}]