[{"name":"Richard C. Shelby","address":[{"line1":"1800 5th Avenue North","line2":"321","line3":"Robert S. Vance Federal Building","city":"Birmingham","state":"AL","zip":"35203","phone":"205-731-1384","longitude":-86.810488,"latitude":33.517386},{"line1":"1000 Glenn Hearn Blvd.","line2":"#20127","city":"Huntsville","state":"AL","zip":"35824","phone":"256-772-0460","longitude":-86.77460219999999,"latitude":34.6471339},{"line1":"113 St Joseph St.","line2":"445","line3":"U.S. Federal Courthouse","city":"Mobile","state":"AL","zip":"36602","phone":"251-694-4164","longitude":-88.0431615,"latitude":30.6938886},{"line1":"15 Lee St.","line2":"Suite 208","line3":"FMJ Federal Courthouse","city":"Montgomery","state":"AL","zip":"36104","phone":"334-223-7303","longitude":-86.3089916,"latitude":32.3752753},{"line1":"2005 University Blvd.","line2":"Suite 2100","city":"Tuscaloosa","state":"AL","zip":"35401","phone":"205-759-5047","longitude":-87.5631689,"latitude":33.21019640000001}],"party":"Republican","phones":["202-224-5744"],"emails":[],"urls":["https://www.shelby.senate.gov"],"photoUrl":"","channels":[],"sources":["theunitedstates.io"]},{"name":"Doug Jones","address":[{"line1":"1800 5th Avenue North","line3":"Robert S. Vance Federal Building","city":"Birmingham","state":"AL","zip":"35203","phone":"205-731-1500","longitude":-86.810488,"latitude":33.517386},{"line1":"1 Church Street","line2":"Suite 500 B","city":"Montgomery","state":"AL","zip":"36104","longitude":-86.3100212,"latitude":32.3740843},{"line1":"41 West I-65 Service Road North","line2":"Suite 2300-A","line3":"BB&T Centre","city":"Mobile","state":"AL","zip":"36608","longitude":-88.12678480000001,"latitude":30.6907305}],"party":"Democratic","phones":["202-224-4124"],"emails":[],"urls":["https://www.jones.senate.gov"],"photoUrl":"","channels":[],"sources":["theunitedstates.io"]}]